OBJECT_NAME,OBJECT_ID,EPOCH,MEAN_MOTION,ECCENTRICITY,INCLINATION,RA_OF_ASC_NODE,ARG_OF_PERICENTER,MEAN_ANOMALY,EPHEMERIS_TYPE,CLASSIFICATION_TYPE,NORAD_CAT_ID,ELEMENT_SET_NO,REV_AT_EPOCH,BSTAR,MEAN_MOTION_DOT,MEAN_MOTION_DDOT
IRIDIUM 154,2018-061F,2026-06-10T04:26:22.459488,14.34217664,.00020556,86.3970,59.7346,87.6554,272.4878,0,U,43574,999,41240,.3734686E-5,.3E-6,0
IRIDIUM 163,2018-061G,2026-06-10T03:58:57.674784,14.34215792,.00023117,86.3965,59.6581,83.4755,276.6704,0,U,43575,999,41237,.2474565E-4,.89E-6,0
IRIDIUM 156,2018-061H,2026-06-10T03:22:26.302944,14.34216203,.00021218,86.3962,59.6756,79.6572,280.4863,0,U,43576,999,41236,.66766924E-4,.207E-5,0
IRIDIUM 164,2018-061J,2026-06-10T04:35:30.458400,14.34217424,.00021036,86.3968,59.6949,88.4982,271.6455,0,U,43577,999,41241,.17433192E-4,.69E-6,0
IRIDIUM 159,2018-061K,2026-06-10T03:49:50.427552,14.34217068,.0002318,86.3965,59.6452,84.6354,275.5106,0,U,43578,999,41237,.62446757E-4,.195E-5,0
IRIDIUM 180,2019-002A,2026-06-10T02:08:38.918976,14.34217790,.00022498,86.3972,356.5657,89.0318,271.1136,0,U,43922,999,38797,.2310323E-5,.26E-6,0
IRIDIUM 176,2019-002B,2026-06-10T02:10:05.416608,14.72257570,.00022208,86.6093,356.5097,91.0035,269.1437,0,U,43923,999,39820,.1046489E-3,.685E-5,0
IRIDIUM 168,2019-002C,2026-06-10T00:19:02.986464,14.34217656,.00021853,86.3975,356.6745,89.0579,271.0868,0,U,43924,999,38794,.534223E-5,.35E-6,0
IRIDIUM 173,2019-002D,2026-06-10T06:42:38.888928,14.34217309,.00022318,86.3971,356.4522,86.5648,273.5803,0,U,43925,999,38796,.10544207E-4,.49E-6,0
IRIDIUM 169,2019-002E,2026-06-09T09:25:06.421152,14.38610903,.00021297,86.4233,28.4526,70.4730,289.6698,0,U,43926,999,38910,.71085381E-4,.237E-5,0
IRIDIUM 172,2019-002F,2026-06-10T06:33:30.718944,14.34218975,.00022703,86.3971,356.4627,88.7888,271.3568,0,U,43927,999,38797,.36167201E-4,.121E-5,0
IRIDIUM 175,2019-002G,2026-06-10T01:36:36.255456,14.43608837,.00015759,86.4506,293.4976,207.3618,152.7500,0,U,43928,999,39795,.80004573E-4,.291E-5,0
IRIDIUM 171,2019-002H,2026-06-10T06:06:06.741216,14.34218833,.0001993,86.3980,356.7760,87.0396,273.1028,0,U,43929,999,38796,.19351182E-4,.74E-6,0
IRIDIUM 170,2019-002J,2026-06-10T00:41:07.238400,14.72257926,.00023593,86.6091,356.5379,87.8824,272.2663,0,U,43930,999,39820,.1050865E-3,.687E-5,0
IRIDIUM 167,2019-002K,2026-06-10T05:56:58.895232,14.34217696,.00018566,86.3972,356.4957,86.8125,273.3284,0,U,43931,999,38796,.6507336E-5,.38E-6,0
IRIDIUM 181,2023-068S,2026-06-10T04:09:52.159968,14.43310833,.00023095,86.4503,59.7223,90.1501,269.9965,0,U,56726,999,16142,.73099E-4,.266E-5,0
IRIDIUM 177,2023-068T,2026-06-10T05:23:07.088640,14.80216816,.00024356,86.1960,332.0994,87.8726,272.2774,0,U,56727,999,16533,.79351579E-4,.629E-5,0
IRIDIUM 174,2023-068U,2026-06-10T06:54:49.389696,14.72254305,.00025608,86.6099,356.5762,85.1310,275.0199,0,U,56728,999,16500,.10714402E-3,.7E-5,0
IRIDIUM 178,2023-068V,2026-06-10T03:30:07.130304,14.80221547,.00026792,86.6544,28.3030,88.2537,271.8991,0,U,56729,999,16532,.10828833E-3,.849E-5,0
IRIDIUM 179,2023-068W,2026-06-10T03:22:22.687968,14.80238313,.00024012,86.6785,37.2641,87.2454,272.9042,0,U,56730,999,16532,.10741038E-3,.842E-5,0
