IRIDIUM 154             
1 43574U 18061F   26161.18498217  .00000030  00000+0  37347-5 0  9996
2 43574  86.3970  59.7346 0002055  87.6554 272.4878 14.34217664412406
IRIDIUM 163             
1 43575U 18061G   26161.16594531  .00000089  00000+0  24746-4 0  9993
2 43575  86.3965  59.6581 0002311  83.4755 276.6704 14.34215792412373
IRIDIUM 156             
1 43576U 18061H   26161.14058221  .00000207  00000+0  66767-4 0  9994
2 43576  86.3962  59.6756 0002121  79.6572 280.4863 14.34216203412364
IRIDIUM 164             
1 43577U 18061J   26161.19132475  .00000069  00000+0  17433-4 0  9996
2 43577  86.3968  59.6949 0002103  88.4982 271.6455 14.34217424412419
IRIDIUM 159             
1 43578U 18061K   26161.15961143  .00000195  00000+0  62447-4 0  9990
2 43578  86.3965  59.6452 0002318  84.6354 275.5106 14.34217068412370
IRIDIUM 180             
1 43922U 19002A   26161.08933934  .00000026  00000+0  23103-5 0  9998
2 43922  86.3972 356.5657 0002249  89.0318 271.1136 14.34217790387973
IRIDIUM 176             
1 43923U 19002B   26161.09034047  .00000685  00000+0  10465-3 0  9993
2 43923  86.6093 356.5097 0002220  91.0035 269.1437 14.72257570398208
IRIDIUM 168             
1 43924U 19002C   26161.01322901  .00000035  00000+0  53422-5 0  9996
2 43924  86.3975 356.6745 0002185  89.0579 271.0868 14.34217656387944
IRIDIUM 173             
1 43925U 19002D   26161.27961677  .00000049  00000+0  10544-4 0  9996
2 43925  86.3971 356.4522 0002231  86.5648 273.5803 14.34217309387966
IRIDIUM 169             
1 43926U 19002E   26160.39243543  .00000237  00000+0  71085-4 0  9990
2 43926  86.4233  28.4526 0002129  70.4730 289.6698 14.38610903389108
IRIDIUM 172             
1 43927U 19002F   26161.27327221  .00000121  00000+0  36167-4 0  9999
2 43927  86.3971 356.4627 0002270  88.7888 271.3568 14.34218975387972
IRIDIUM 175             
1 43928U 19002G   26161.06708629  .00000291  00000+0  80005-4 0  9990
2 43928  86.4506 293.4976 0001575 207.3618 152.7500 14.43608837397959
IRIDIUM 171             
1 43929U 19002H   26161.25424469  .00000074  00000+0  19351-4 0  9994
2 43929  86.3980 356.7760 0001993  87.0396 273.1028 14.34218833387965
IRIDIUM 170             
1 43930U 19002J   26161.02855600  .00000687  00000+0  10509-3 0  9991
2 43930  86.6091 356.5379 0002359  87.8824 272.2663 14.72257926398200
IRIDIUM 167             
1 43931U 19002K   26161.24790388  .00000038  00000+0  65073-5 0  9995
2 43931  86.3972 356.4957 0001856  86.8125 273.3284 14.34217696387961
IRIDIUM 181             
1 56726U 23068S   26161.17352037  .00000266  00000+0  73099-4 0  9994
2 56726  86.4503  59.7223 0002309  90.1501 269.9965 14.43310833161422
IRIDIUM 177             
1 56727U 23068T   26161.22438760  .00000629  00000+0  79352-4 0  9990
2 56727  86.1960 332.0994 0002435  87.8726 272.2774 14.80216816165337
IRIDIUM 174             
1 56728U 23068U   26161.28807164  .00000700  00000+0  10714-3 0  9991
2 56728  86.6099 356.5762 0002560  85.1310 275.0199 14.72254305165001
IRIDIUM 178             
1 56729U 23068V   26161.14591586  .00000849  00000+0  10829-3 0  9996
2 56729  86.6544  28.3030 0002679  88.2537 271.8991 14.80221547165325
IRIDIUM 179             
1 56730U 23068W   26161.14054037  .00000842  00000+0  10741-3 0  9999
2 56730  86.6785  37.2641 0002401  87.2454 272.9042 14.80238313165329
